#cP2023 11 10  0  0  0.00000000      96 ORBIT IGS20 HLM  IGS
## 2287 432000.00000000   900.00000000 60258 0.0000000000000
+   32   G01G02G03G04G05G06G07G08G09G10G11G12G13G14G15G16G17
+        G18G19G20G21G22G23G24G25G26G27G28G29G30G31G32  0  0
+          0  0  0  0  0  0  0  0  0  0  0  0  0  0  0  0  0
+          0  0  0  0  0  0  0  0  0  0  0  0  0  0  0  0  0
+          0  0  0  0  0  0  0  0  0  0  0  0  0  0  0  0  0
++         2  2  2  2  2  2  2  2  2  2  2  2  2  3  2  2  2
++         2  2  2  2  2  2  2  2  2  2  2  2  2  2  2  0  0
++         0  0  0  0  0  0  0  0  0  0  0  0  0  0  0  0  0
++         0  0  0  0  0  0  0  0  0  0  0  0  0  0  0  0  0
++         0  0  0  0  0  0  0  0  0  0  0  0  0  0  0  0  0
%c G  cc GPS ccc cccc cccc cccc cccc ccccc ccccc ccccc ccccc
%c cc cc ccc ccc cccc cccc cccc cccc ccccc ccccc ccccc ccccc
%f  1.2500000  1.025000000  0.00000000000  0.000000000000000
%f  0.0000000  0.000000000  0.00000000000  0.000000000000000
%i    0    0    0    0      0      0      0      0         0
%i    0    0    0    0      0      0      0      0         0
/* RAPID ORBIT COMBINATION FROM WEIGHTED AVERAGE OF:        
/* cod emr esa gfz grg jgx jpl ngs usn whu                  
/* REFERENCED TO IGS TIME (IGST) AND TO WEIGHTED MEAN POLE: 
/* PCV:IGS20      OL/AL:FES2014b NONE     Y  ORB:CMB CLK:CMB
*  2023 11 10  7 30  0.00000000
PG01  21278.182050  15246.755854  -5812.202633    163.195505  6  7  7  99       
PG02  18598.975631  15329.129770 -10871.594318   -530.909081  4  7  5 115       
PG03  11846.164220  17564.408194  15938.467318    -23.990892  4  5  4  85       
PG04  16013.666637   6563.403598  20189.189316    208.798696  5  3  6  94       
PG05  -6041.578787 -25453.986677  -4474.376417   -149.821354  6  6  4  93       
PG06  10849.195666 -10616.751575  21877.614605    509.773575  5  4  5  70       
PG07  24395.499980   4231.486793  -9756.951210     17.342658  2  5  6  82       
PG08   8081.521850  13081.235891 -21723.052456   -151.385582  5  4  3 111       
PG09  22208.398591  -3525.478966  14092.786629     -7.316568  4  5  5  78       
PG10 -11171.480097  15343.276706 -18247.715136    -60.800477  5  6  6 104       
PG11  -1621.642980 -16989.954790  20384.728949   -453.696761  4  8  7  77       
PG12 -10046.476059 -19683.573496  14512.051907   -445.393295  6  7  7  79       
PG13   3021.776823 -16970.767243 -20348.003303    593.660218  5  5  1 101       
PG14  13582.508240 -11669.419805 -19538.555980    239.038008  5  6  8  88       
PG15 -10457.422091 -12169.110550 -21651.428223     95.665197  5  7  4 102       
PG16   -702.438844  26291.914852    287.250854   -424.643634  7  9  5  88       
PG17  22991.983382 -13424.058395    -64.464828    723.383826  4  5  3  86       
PG18 -23533.897206  -2800.991063 -12163.887021   -474.818319  6  6  5 107       
PG19  19213.076070 -16201.979464   7833.421818    396.881097  5  5  3  90       
PG20     76.431477 -25264.325745   8541.401356    402.385161  4  6  4  93       
PG21  16367.986204  16297.478766 -13382.527441    144.651440  6  8  3 119       
PG22  10859.184777 -18832.236285 -15004.904593     86.648049  5  7  5 100       
PG23 -14766.823208   1732.238944 -21995.442962     96.473066  3  5  3 105       
PG24 -19136.796516 -15676.947466 -10609.319363   -367.708174  5  8  5  83       
PG25 -15141.898017  -7101.718694  20368.875404    476.729362  6  4  5 105       
PG26  -4627.420175  23620.162448  10689.392662    217.651614  6  6  6 106       
PG27  -5709.091427  18852.593484 -17870.571238    -67.859087  6  6  5 106       
PG28 -12705.036113  10290.345682  20908.313906    -42.946498  3  6  6  89       
PG29 -22279.815125   1355.415619  14430.259419   -610.229686  4  5  3  93       
PG30  19324.313886  -4862.572252 -17564.713254   -469.810117  6  6  5  87       
PG31  -4229.631687  14856.422552  21371.229184   -225.596491  5  6  5 108       
PG32 -20464.831042  16524.356776   2926.538959   -583.935245  4  5  6 105       
*  2023 11 10  7 45  0.00000000
PG01  20525.979658  15034.587716  -8551.950167    163.195541  6  7  7  98       
PG02  17171.906217  15031.579119 -13246.066380   -530.904601  5  7  5 112       
PG03  11875.279820  19287.925769  13810.530865    -23.968473  4  5  3  86       
PG04  14095.744470   7935.983592  21094.861552    208.808168  4  3  6 101       
PG05  -5856.202683 -25815.105370  -1625.661833   -149.822981  6  6  3  93       
PG06  13045.260643  -9556.003562  21161.645592    509.764707  5  3  5  73       
PG07  25224.613470   4866.679701  -7175.770771     17.333694  2  5  6  80       
PG08   6106.152642  14540.481993 -21400.720380   -151.386088  5  4  3 116       
PG09  20934.290668  -2322.163956  16127.462417     -7.306516  4  5  5  83       
PG10 -11514.063632  13153.629544 -19701.757758    -60.802309  5  6  6 105       
PG11    525.255282 -15972.035525  21243.507996   -453.711546  4  7  7  65       
PG12  -9900.672728 -21259.266076  12264.344558   -445.397112  7  7  7  89       
PG13   5035.427631 -17911.397970 -19072.347175    593.664055  5  5  2  98       
PG14  13864.183125  -9376.429024 -20563.349127    239.047766  5  6  8  89       
PG15  -8730.948846 -13797.963755 -21413.504764     95.668294  5  7  5 101       
PG16   -988.572924  26061.224678   3167.396714   -424.637432  7  8  5  94       
PG17  22923.143018 -13124.486025  -2927.694348    723.383932  4  6  3  76       
PG18 -24583.009712  -3490.982374  -9672.069583   -474.828171  6  7  6  96       
PG19  20001.229060 -16368.983631   5067.457568    396.885641  5  5  3  80       
PG20    605.837826 -24258.347661  11060.289348    402.383949  3  5  3  90       
PG21  14715.569802  15878.256529 -15471.984451    144.651172  6  7  3 120       
PG22  11042.483430 -16942.872790 -16917.395882     86.641875  4  7  5  97       
PG23 -15087.475368   -753.150058 -21848.826877     96.478719  2  5  3 106       
PG24 -17843.946631 -15486.510139 -12934.143555   -367.716365  5  8  4  82       
PG25 -15312.914829  -9428.382335  19309.902943    476.730978  7  4  5 105       
PG26  -5169.282691  22301.247503  13026.299926    217.649210  6  5  6 108       
PG27  -7353.103894  19840.544011 -16046.165281    -67.863884  6  6  5  96       
PG28 -14838.861444   9322.280756  19935.456882    -42.953925  3  6  6 104       
PG29 -20848.545380    305.413102  16469.491311   -610.229529  5  4  2  96       
PG30  21000.110013  -3887.524383 -15833.274106   -469.806510  6  6  5  71       
PG31  -6501.709669  13808.087916  21538.903739   -225.596854  5  6  5 106       
PG32 -20749.145851  16395.257023     66.420100   -583.939399  4  5  5 101       
*  2023 11 10  8  0  0.00000000
PG01  19486.966835  14753.814765 -11149.105761    163.195583  7  6  6 104       
PG02  15478.281613  14739.659182 -15388.033821   -530.900183  5  7  6 113       
PG03  11959.728904  20753.447643  11444.062847    -23.945929  4  5  3  90       
PG04  12186.493030   9457.867045  21638.490692    208.817645  4  3  7  98       
PG05  -5621.879575 -25868.018568   1251.139805   -149.823992  6  6  3  97       
PG06  15203.194656  -8659.235108  20084.514670    509.755878  5  2  4  74       
PG07  25806.399275   5347.319674  -4472.594416     17.324723  3  5  6  82       
PG08   4248.230802  16064.369172 -20711.136731   -151.387534  6  4  3 114       
PG09  19559.832600   -914.615432  17883.584502     -7.296377  4  5  5  93       
PG10 -11998.595285  10842.561010 -20808.206916    -60.803681  5  5  6 109       
PG11   2793.634073 -15038.568609  21737.700814   -453.726282  4  6  7  74       
PG12  -9814.805164 -22571.382149   9803.264828   -445.400962  7  7  7  95       
PG13   6859.586148 -18875.633843 -17471.604596    593.667856  6  4  3 100       
PG14  14271.852780  -7006.684073 -21232.457017    239.057480  6  7  8  93       
PG15  -7115.171729 -15477.720515 -20822.001686     95.672207  6  7  5 110       
PG16  -1312.154149  25518.690891   5991.186436   -424.631653  7  6  5 101       
PG17  22610.739151 -12630.581470  -5740.579570    723.383615  4  6  4 104       
PG18 -25398.105318  -4013.905036  -7015.397239   -474.838093  7  8  6 100       
PG19  20508.806095 -16402.285034   2212.036842    396.890536  5  6  3  80       
PG20   1274.872022 -23022.512741  13391.108701    402.382405  2  3  4  82       
PG21  12821.203896  15488.353424 -17296.588008    144.649746  6  7  3 119       
PG22  11339.887047 -14859.648800 -18532.291842     86.635531  4  7  5 100       
PG23 -15535.923816  -3178.275864 -21326.367531     96.484351  1  6  4 112       
PG24 -16307.789431 -15292.769679 -15045.536034   -367.724604  5  9  4 109       
PG25 -15576.493825 -11601.424220  17912.058003    476.732538  7  4  5 102       
PG26  -5829.821569  20763.291633  15133.354364    217.646842  6  4  5 112       
PG27  -8775.709420  20773.358378 -13945.500893    -67.868724  6  6  5  99       
PG28 -16897.455305   8508.934990  18618.889346    -42.961356  4  5  6 102       
PG29 -19299.332482   -944.414434  18225.631232   -610.229860  6  4  1  90       
PG30  22523.119758  -3072.629243 -13830.133299   -469.802843  6  6  6  98       
PG31  -8817.712956  12878.406923  21329.118547   -225.597158  4  6  6 112       
PG32 -20790.205056  16071.843074  -2794.837991   -583.943519  3  5  6  79       
EOF
